[{"OBJECT_NAME":"ONEWEB-0618","OBJECT_ID":"2023-004V","EPOCH":"2026-03-09T21:27:12.326688","MEAN_MOTION":15.11974897,"ECCENTRICITY":0.00107842,"INCLINATION":86.9069,"RA_OF_ASC_NODE":217.8931,"ARG_OF_PERICENTER":307.7231,"MEAN_ANOMALY":52.303,"EPHEMERIS_TYPE":0,"CLASSIFICATION_TYPE":"U","NORAD_CAT_ID":55159,"ELEMENT_SET_NO":999,"REV_AT_EPOCH":16725,"BSTAR":0.00049587895,"MEAN_MOTION_DOT":8.547e-5,"MEAN_MOTION_DDOT":0},{"OBJECT_NAME":"STARLINK-5757","OBJECT_ID":"2023-020M","EPOCH":"2026-03-09T22:00:01.999584","MEAN_MOTION":15.08369325,"ECCENTRICITY":0.00014936,"INCLINATION":42.9989,"RA_OF_ASC_NODE":337.1985,"ARG_OF_PERICENTER":308.378,"MEAN_ANOMALY":134.9479,"EPHEMERIS_TYPE":0,"CLASSIFICATION_TYPE":"U","NORAD_CAT_ID":55580,"ELEMENT_SET_NO":999,"REV_AT_EPOCH":573,"BSTAR":0.0028831401,"MEAN_MOTION_DOT":0.00045651,"MEAN_MOTION_DDOT":0}]
